OSCAR 7 (AO-7)          
1 07530U 74089B   19083.21265253 -.00000042  00000-0  17808-4 0  9995
2 07530 101.7341  51.7961 0012237 152.5474 325.1491 12.53637216 29682
UOSAT 2 (UO-11)         
1 14781U 84021B   19082.86794555  .00000047  00000-0  11919-4 0  9991
2 14781  97.6201 111.6512 0007173 239.5254 120.5253 14.83071058864893
LUSAT (LO-19)           
1 20442U 90005G   19082.80401020  .00000012  00000-0  20769-4 0  9992
2 20442  98.6408  24.9886 0012682  49.2256 311.0026 14.32920122523934
ITAMSAT (IO-26)         
1 22826U 93061D   19082.90284001 -.00000022  00000-0  93854-5 0  9992
2 22826  98.8919  69.5880 0007981 237.3104 122.7309 14.30386904329496
RADIO ROSTO (RS-15)     
1 23439U 94085A   19082.89219031 -.00000060  00000-0 -48655-3 0  9999
2 23439  64.8140 256.4910 0148242 129.8823 339.8517 11.27568291998102
JAS-2 (FO-29)           
1 24278U 96046B   19082.88838041 -.00000025  00000-0  70424-5 0  9998
2 24278  98.5239 248.1303 0351371 105.1370 258.8914 13.53090013115817
TECHSAT 1B (GO-32)      
1 25397U 98043D   19082.82242845 -.00000009  00000-0  15056-4 0  9996
2 25397  98.6813  24.0562 0000467 352.0225   8.0946 14.23662102 75295
ISS (ZARYA)             
1 25544U 98067A   19083.39352416 -.00032849  00000-0 -52235-3 0  9992
2 25544  51.6455  62.7461 0002140 117.1579 339.5213 15.52433720162087
PCSAT (NO-44)           
1 26931U 01043C   19082.87663377 -.00000040  00000-0  16559-4 0  9991
2 26931  67.0504 227.7019 0005490 275.6006  84.4469 14.30535904912558
SAUDISAT 1C (SO-50)     
1 27607U 02058C   19082.92985320 -.00000031  00000-0  16569-4 0  9991
2 27607  64.5551 314.8574 0082366 273.0517  86.1163 14.75529027874109
CUTE-1 (CO-55)          
1 27844U 03031E   19082.90567808  .00000027  00000-0  31938-4 0  9992
2 27844  98.6869  92.4064 0008676 283.8705  76.1507 14.22166063815919
CUBESAT XI-IV (CO-57)   
1 27848U 03031J   19082.94353551  .00000018  00000-0  28187-4 0  9990
2 27848  98.6948  92.9239 0008636 296.2987  63.7303 14.21762863815786
MOZHAYETS 4 (RS-22)     
1 27939U 03042A   19083.20694849  .00000058  00000-0  18894-4 0  9999
2 27939  98.0249 220.7821 0012208 348.4596  11.6335 14.66761997827864
CUBESAT XI-V            
1 28895U 05043F   19083.16580882  .00000093  00000-0  26751-4 0  9990
2 28895  97.9443 228.9324 0015444 264.0017  95.9426 14.63640625714822
CUTE-1.7+APD II (CO-65) 
1 32785U 08021C   19082.88789790  .00000159  00000-0  22765-4 0  9993
2 32785  97.5495  86.7019 0012888 184.1665 175.9447 14.88266470590776
DELFI-C3 (DO-64)        
1 32789U 08021G   19082.89242999  .00001412  00000-0  98872-4 0  9998
2 32789  97.4752 135.1393 0013625  66.8128 293.4533 15.06735461593899
SEEDS II (CO-66)        
1 32791U 08021J   19082.98475039  .00000267  00000-0  32447-4 0  9997
2 32791  97.5303  92.6671 0013879 160.5878 199.5872 14.90757550591194
YUBILEINY (RS-30)       
1 32953U 08025A   19083.04376263  .00000020  00000-0  75656-4 0  9994
2 32953  82.5068 198.6340 0018030 320.7030  39.2740 12.43088213491541
KKS-1 (KISEKI)          
1 33499U 09002H   19082.93619647  .00000077  00000-0  19409-4 0  9995
2 33499  98.3549 278.8466 0010311 119.1188 241.1054 14.75416195546009
SWISSCUBE               
1 35932U 09051B   19082.68035731  .00000113  00000-0  36540-4 0  9997
2 35932  98.5770 246.1521 0008738  76.1717 284.0452 14.56255303504116
BEESAT-1                
1 35933U 09051C   19083.16969672  .00000091  00000-0  31567-4 0  9991
2 35933  98.5804 248.3697 0007017  86.5838 273.6161 14.56348275504292
ITUPSAT1                
1 35935U 09051E   19083.17760861  .00000055  00000-0  23810-4 0  9995
2 35935  98.5916 248.6212 0009304  83.1074 277.1180 14.55512081504051
XIWANG-1 (HOPE-1)       
1 36122U 09072B   19082.71034874 -.00000014  00000-0  74584-4 0  9994
2 36122 100.0745  89.1814 0007691 180.3348 179.7769 13.16349134445435
JUGNU                   
1 37839U 11058B   19081.37299701  .00000344  00000-0  41642-4 0  9994
2 37839  19.9602 150.3471 0019062  73.4455   5.9378 14.12645052384643
SRMSAT                  
1 37841U 11058D   19082.71754123  .00000320  00000-0  30595-4 0  9999
2 37841  19.9709 197.1712 0011844 322.0189 155.2558 14.10627206384309
M-CUBED & EXP-1 PRIME   
1 37855U 11061F   19082.79258969  .00000903  00000-0  53451-4 0  9996
2 37855 101.7268 293.7342 0174231 334.3618  24.9030 15.05209639403231
STRAND-1                
1 39090U 13009E   19083.19071438  .00000022  00000-0  22827-4 0  9997
2 39090  98.4972 290.5546 0009091 178.8477 181.2731 14.35075054317989
SOMP                    
1 39134U 13015E   19083.10635198  .00000880  00000-0  50022-4 0  9993
2 39134  64.8629 300.9086 0022650 315.9237  44.0083 15.19917854327436
BEESAT-3                
1 39135U 13015F   19083.13953241  .00000445  00000-0  32072-4 0  9991
2 39135  64.8683 317.9083 0010078 301.0324  58.9812 15.17273273327113
BEESAT-2                
1 39136U 13015G   19083.14454797  .00000442  00000-0  32394-4 0  9999
2 39136  64.8702 321.4495 0011552 297.0877  62.9070 15.16717462327043
ZACUBE-1 (TSHEPISOSAT)  
1 39417U 13066B   19083.16156825  .00000152  00000-0  25614-4 0  9995
2 39417  97.5683 101.5021 0057903 318.8356  40.8497 14.81072346288233
GOMX-1                  
1 39430U 13066Q   19083.15559704  .00000160  00000-0  37847-4 0  9992
2 39430  97.7355  45.4617 0151505 166.5606 193.9706 14.59209760283989
CUBEBUG-2 (LO-74)       
1 39440U 13066AA  19082.89951305  .00000195  00000-0  34072-4 0  9991
2 39440  97.6018  86.4660 0080520   8.0717 352.1768 14.75810408285972
FUNCUBE-1 (AO-73)       
1 39444U 13066AE  19082.93953550  .00000196  00000-0  30640-4 0  9992
2 39444  97.5671 103.1500 0056903 313.7420  45.9090 14.81881835286497
UWE-3                   
1 39446U 13066AG  19083.18760127  .00000176  00000-0  30159-4 0  9991
2 39446  97.5838  93.6452 0069576 343.6017  16.2944 14.78345507286482
SPROUT                  
1 39770U 14029E   19083.11205541  .00000439  00000-0  54890-4 0  9998
2 39770  97.8802 187.0143 0009122  20.9660 339.1907 14.87220966261964
UNISAT-6                
1 40012U 14033C   19083.18924777  .00000135  00000-0  27597-4 0  9997
2 40012  97.7707 313.4599 0058907  18.2673 342.0633 14.73940454255943
DUCHIFAT-1              
1 40021U 14033M   19082.74662236  .00000379  00000-0  44589-4 0  9997
2 40021  97.9225   7.0672 0012590 343.4393  16.6412 14.90552720258595
QB50P1                  
1 40025U 14033R   19082.73795216  .00000228  00000-0  30302-4 0  9996
2 40025  97.9065   2.5638 0012270 352.5509   7.5523 14.88887187258382
NUDT-PHONESAT           
1 40900U 15049B   19083.08219131  .00001742  00000-0  78273-4 0  9993
2 40900  97.4401  93.2796 0014761 124.1242 278.2858 15.22405978194480
ZDPS 2A                 
1 40901U 15049C   19083.09676073  .00000561  00000-0  31215-4 0  9990
2 40901  97.4610  90.1779 0014797 138.4248 262.2804 15.17561475194105
ZDPS 2B                 
1 40902U 15049D   19083.05242407  .00000738  00000-0  40268-4 0  9991
2 40902  97.4538  87.7478 0014905 136.1026 310.0454 15.17336548194073
XW-2A                   
1 40903U 15049E   19083.12696171  .00001540  00000-0  38669-4 0  9995
2 40903  97.3493 125.3621 0015766  98.0728 346.8507 15.41495943196916
KAITUO 1A               
1 40904U 15049F   19083.15783775  .00000144  00000-0  11158-4 0  9999
2 40904  97.4662  86.6560 0015638 141.7421 288.6345 15.15274849193899
2015-049G               
1 40905U 15049G   19083.04756365  .00000368  00000-0  23688-4 0  9992
2 40905  97.4688  84.2091 0016982 137.2706 307.0981 15.14211324193766
XW-2C                   
1 40906U 15049H   19082.97414561  .00000457  00000-0  27538-4 0  9990
2 40906  97.4667  86.4989 0016131 134.9198 277.0048 15.15550857193868
XW-2D                   
1 40907U 15049J   19083.09275581  .00000346  00000-0  21582-4 0  9992
2 40907  97.4647  86.2943 0015561 131.5690 272.1437 15.15727932193892
LILACSAT-2              
1 40908U 15049K   19083.05599478  .00000578  00000-0  35595-4 0  9999
2 40908  97.4775  85.2392 0017150 137.2239 260.8718 15.13729963193700
XW-2F                   
1 40910U 15049M   19083.06829921  .00000988  00000-0  53097-4 0  9994
2 40910  97.4624  88.0923 0016282 126.0644 275.5603 15.17099830193880
XW-2B                   
1 40911U 15049N   19083.05610682  .00000779  00000-0  44331-4 0  9995
2 40911  97.4675  86.8860 0015532 132.8188 274.1952 15.15664893193784
KAITUO 1B               
1 40912U 15049P   19083.23382499  .00000854  00000-0  43497-4 0  9994
2 40912  97.4514  91.7134 0016871 111.5586 309.6344 15.19384691194182
TIANWANG 1C (TW-1C)     
1 40926U 15051B   19083.08015003  .00009006  00000-0  14173-3 0  9995
2 40926  97.1483 129.4259 0007459 346.3188  69.1767 15.53794679196700
TIANWANG 1A (TW-1A)     
1 40928U 15051D   19083.15761384  .00002751  00000-0  70341-4 0  9995
2 40928  97.1552 116.3602 0012443  36.7898   4.2281 15.40215214195858
LAPAN-A2                
1 40931U 15052B   19082.75843474  .00000697  00000-0  79890-5 0  9992
2 40931   6.0005 316.4306 0013048   3.4244 356.5973 14.76600814188390
E-ST@R-II               
1 41459U 16025D   19083.19059588 -.00000054  00000-0  21239-5 0  9995
2 41459  98.1031 165.3661 0166953 289.2385  69.0852 15.05160320159538
AAUSAT 4                
1 41460U 16025E   19083.13799784  .00000924  00000-0  51316-4 0  9993
2 41460  98.1001 166.3479 0157184 282.7707  75.6010 15.06920162159636
NUSAT-1 (FRESCO)        
1 41557U 16033B   19083.22230252  .00001100  00000-0  44306-4 0  9997
2 41557  97.4190 171.2400 0012560 239.8274 120.1721 15.26966760156899
BEESAT-4                
1 41619U 16040W   19082.91970512  .00001085  00000-0  49270-4 0  9996
2 41619  97.3775 146.7276 0010536 336.5185  23.5569 15.22868501140654
CAS-2T & KS-1Q          
1 41847U 16066G   19083.11947437  .00000027  00000-0  13902-4 0  9998
2 41847  98.7177 122.4169 0366891 132.3745 230.9125 14.37965356124556
NAYIF-1 (EO-88)         
1 42017U 17008BX  19082.90998491  .00001239  00000-0  52133-4 0  9992
2 42017  97.4120 150.8732 0007914 111.1370 249.0715 15.25249015116695
LILACSAT-1 (LO-90)      
1 42725U 98067ME  19083.16749896  .00909440  56344-3  54971-3 0  9991
2 42725  51.6236 344.9374 0006531 224.0353 136.0160 16.17701339104823
MAX VALIER SAT          
1 42778U 17036P   19082.93804061  .00000739  00000-0  35488-4 0  9997
2 42778  97.3651 142.4745 0013092 161.8202 198.3505 15.21830783 97042
RADFXSAT (FOX-1B)       
1 43017U 17073E   19082.76840657  .00000542  00000-0  47158-4 0  9996
2 43017  97.7223   7.5343 0260111  81.4979 281.5617 14.78424538 72418
FOX-1D (AO-92)          
1 43137U 18004AC  19082.92372498  .00000822  00000-0  37691-4 0  9997
2 43137  97.4964 150.8901 0009025 190.9350 169.1691 15.23266773 66294
ES'HAIL 2               
1 43700U 18090A   19083.10037421  .00000121  00000-0  00000+0 0  9994
2 43700   0.0086 202.6807 0001699 193.4933 207.0456  1.00271021  1427
FOX-1CLIFF (AO-95)      
1 43770U 18099N   19082.74373242  .00000612  00000-0  61691-4 0  9996
2 43770  97.7527 155.6951 0013157 262.4416  97.5310 14.94700429 16433
ITASAT 1                
1 43786U 18099AE  19082.91618826 -.00000191  00000-0 -12108-4 0  9995
2 43786  97.7540 155.9525 0013897 256.1509 103.8166 14.95080801 16468
JY1SAT (JO-97)          
1 43803U 18099AX  19082.90814190 -.00000162  00000-0 -94133-5 0  9993
2 43803  97.7499 155.8984 0013814 257.2139 102.7538 14.95199581 16455
